CCSDS_OMM_VERS = 2.0
CREATION_DATE  = 
ORIGINATOR     = 

OBJECT_NAME    = STARLINK-34852
OBJECT_ID      = 2025-237X
CENTER_NAME    = EARTH
REF_FRAME      = TEME
TIME_SYSTEM    = UTC
MEAN_ELEMENT_THEORY = SGP/SGP4

EPOCH          = 2025-11-04T22:00:01.999584
MEAN_MOTION    = 15.74215621
ECCENTRICITY   = .00014921
INCLINATION    = 53.1572
RA_OF_ASC_NODE = 267.4724
ARG_OF_PERICENTER = 106.7834
MEAN_ANOMALY   = 145.9580

EPHEMERIS_TYPE = 0
CLASSIFICATION_TYPE = U
NORAD_CAT_ID   = 66135
ELEMENT_SET_NO = 999
REV_AT_EPOCH   = 336
BSTAR          = -.20545121E-3
MEAN_MOTION_DOT = -.30645E-3
MEAN_MOTION_DDOT = 0

CCSDS_OMM_VERS = 2.0
CREATION_DATE  = 
ORIGINATOR     = 

OBJECT_NAME    = STARLINK-35592
OBJECT_ID      = 2025-237Y
CENTER_NAME    = EARTH
REF_FRAME      = TEME
TIME_SYSTEM    = UTC
MEAN_ELEMENT_THEORY = SGP/SGP4

EPOCH          = 2025-11-04T22:00:01.999584
MEAN_MOTION    = 15.74218486
ECCENTRICITY   = .00009911
INCLINATION    = 53.1565
RA_OF_ASC_NODE = 267.4686
ARG_OF_PERICENTER = 109.8911
MEAN_ANOMALY   = 144.7772

EPHEMERIS_TYPE = 0
CLASSIFICATION_TYPE = U
NORAD_CAT_ID   = 66136
ELEMENT_SET_NO = 999
REV_AT_EPOCH   = 340
BSTAR          = -.58845799E-3
MEAN_MOTION_DOT = -.86044E-3
MEAN_MOTION_DDOT = 0

CCSDS_OMM_VERS = 2.0
CREATION_DATE  = 
ORIGINATOR     = 

OBJECT_NAME    = STARLINK-35576
OBJECT_ID      = 2025-237Z
CENTER_NAME    = EARTH
REF_FRAME      = TEME
TIME_SYSTEM    = UTC
MEAN_ELEMENT_THEORY = SGP/SGP4

EPOCH          = 2025-11-04T22:00:01.999584
MEAN_MOTION    = 15.74243207
ECCENTRICITY   = .00011258
INCLINATION    = 53.1564
RA_OF_ASC_NODE = 267.4642
ARG_OF_PERICENTER = 118.0286
MEAN_ANOMALY   = 138.5512

EPHEMERIS_TYPE = 0
CLASSIFICATION_TYPE = U
NORAD_CAT_ID   = 66137
ELEMENT_SET_NO = 999
REV_AT_EPOCH   = 340
BSTAR          = -.84717626E-3
MEAN_MOTION_DOT = -.123192E-2
MEAN_MOTION_DDOT = 0

CCSDS_OMM_VERS = 2.0
CREATION_DATE  = 
ORIGINATOR     = 

OBJECT_NAME    = STARLINK-35623
OBJECT_ID      = 2025-237AA
CENTER_NAME    = EARTH
REF_FRAME      = TEME
TIME_SYSTEM    = UTC
MEAN_ELEMENT_THEORY = SGP/SGP4

EPOCH          = 2025-11-04T22:00:01.999584
MEAN_MOTION    = 15.74212809
ECCENTRICITY   = .0001301
INCLINATION    = 53.1572
RA_OF_ASC_NODE = 267.4605
ARG_OF_PERICENTER = 107.5056
MEAN_ANOMALY   = 150.9861

EPHEMERIS_TYPE = 0
CLASSIFICATION_TYPE = U
NORAD_CAT_ID   = 66138
ELEMENT_SET_NO = 999
REV_AT_EPOCH   = 340
BSTAR          = -.35712506E-3
MEAN_MOTION_DOT = -.5266E-3
MEAN_MOTION_DDOT = 0

CCSDS_OMM_VERS = 2.0
CREATION_DATE  = 
ORIGINATOR     = 

OBJECT_NAME    = STARLINK-35549
OBJECT_ID      = 2025-237AB
CENTER_NAME    = EARTH
REF_FRAME      = TEME
TIME_SYSTEM    = UTC
MEAN_ELEMENT_THEORY = SGP/SGP4

EPOCH          = 2025-11-04T22:00:01.999584
MEAN_MOTION    = 15.74176718
ECCENTRICITY   = .00012281
INCLINATION    = 53.1572
RA_OF_ASC_NODE = 267.4524
ARG_OF_PERICENTER = 105.8701
MEAN_ANOMALY   = 156.4782

EPHEMERIS_TYPE = 0
CLASSIFICATION_TYPE = U
NORAD_CAT_ID   = 66139
ELEMENT_SET_NO = 999
REV_AT_EPOCH   = 340
BSTAR          = -.22955002E-4
MEAN_MOTION_DOT = -.3988E-4
MEAN_MOTION_DDOT = 0

CCSDS_OMM_VERS = 2.0
CREATION_DATE  = 
ORIGINATOR     = 

OBJECT_NAME    = STARLINK-35625
OBJECT_ID      = 2025-237AC
CENTER_NAME    = EARTH
REF_FRAME      = TEME
TIME_SYSTEM    = UTC
MEAN_ELEMENT_THEORY = SGP/SGP4

EPOCH          = 2025-11-04T22:00:01.999584
MEAN_MOTION    = 15.74193005
ECCENTRICITY   = .0001202
INCLINATION    = 53.1572
RA_OF_ASC_NODE = 267.4566
ARG_OF_PERICENTER = 97.2683
MEAN_ANOMALY   = 163.1545

EPHEMERIS_TYPE = 0
CLASSIFICATION_TYPE = U
NORAD_CAT_ID   = 66140
ELEMENT_SET_NO = 999
REV_AT_EPOCH   = 340
BSTAR          = -.1316745E-3
MEAN_MOTION_DOT = -.19871E-3
MEAN_MOTION_DDOT = 0

CCSDS_OMM_VERS = 2.0
CREATION_DATE  = 
ORIGINATOR     = 

OBJECT_NAME    = STARLINK-35603
OBJECT_ID      = 2025-237AD
CENTER_NAME    = EARTH
REF_FRAME      = TEME
TIME_SYSTEM    = UTC
MEAN_ELEMENT_THEORY = SGP/SGP4

EPOCH          = 2025-11-04T22:00:01.999584
MEAN_MOTION    = 15.74173245
ECCENTRICITY   = .00012344
INCLINATION    = 53.1573
RA_OF_ASC_NODE = 267.4481
ARG_OF_PERICENTER = 100.8005
MEAN_ANOMALY   = 163.4510

EPHEMERIS_TYPE = 0
CLASSIFICATION_TYPE = U
NORAD_CAT_ID   = 66141
ELEMENT_SET_NO = 999
REV_AT_EPOCH   = 340
BSTAR          = .25475306E-3
MEAN_MOTION_DOT = .36817E-3
MEAN_MOTION_DDOT = 0

CCSDS_OMM_VERS = 2.0
CREATION_DATE  = 
ORIGINATOR     = 

OBJECT_NAME    = TJS-20
OBJECT_ID      = 2025-238A
CENTER_NAME    = EARTH
REF_FRAME      = TEME
TIME_SYSTEM    = UTC
MEAN_ELEMENT_THEORY = SGP/SGP4

EPOCH          = 2025-11-04T14:52:06.928032
MEAN_MOTION    = 1.00270081
ECCENTRICITY   = .00019537
INCLINATION    = 5.9751
RA_OF_ASC_NODE = 300.4868
ARG_OF_PERICENTER = 151.6913
MEAN_ANOMALY   = 237.4519

EPHEMERIS_TYPE = 0
CLASSIFICATION_TYPE = U
NORAD_CAT_ID   = 66142
ELEMENT_SET_NO = 999
REV_AT_EPOCH   = 8
BSTAR          = 0
MEAN_MOTION_DOT = .27E-6
MEAN_MOTION_DDOT = 0

CCSDS_OMM_VERS = 2.0
CREATION_DATE  = 
ORIGINATOR     = 

OBJECT_NAME    = CZ-5 R/B
OBJECT_ID      = 2025-238B
CENTER_NAME    = EARTH
REF_FRAME      = TEME
TIME_SYSTEM    = UTC
MEAN_ELEMENT_THEORY = SGP/SGP4

EPOCH          = 2025-11-04T08:08:43.967328
MEAN_MOTION    = 1.93246344
ECCENTRICITY   = .75955476
INCLINATION    = 16.3627
RA_OF_ASC_NODE = 269.4708
ARG_OF_PERICENTER = 171.3434
MEAN_ANOMALY   = 220.2509

EPHEMERIS_TYPE = 0
CLASSIFICATION_TYPE = U
NORAD_CAT_ID   = 66143
ELEMENT_SET_NO = 999
REV_AT_EPOCH   = 24
BSTAR          = .13324882E-2
MEAN_MOTION_DOT = .32736E-3
MEAN_MOTION_DDOT = .932548E-6

CCSDS_OMM_VERS = 2.0
CREATION_DATE  = 
ORIGINATOR     = 

OBJECT_NAME    = SPAINSAT NG II
OBJECT_ID      = 2025-239A
CENTER_NAME    = EARTH
REF_FRAME      = TEME
TIME_SYSTEM    = UTC
MEAN_ELEMENT_THEORY = SGP/SGP4

EPOCH          = 2025-11-03T23:03:57.538368
MEAN_MOTION    = 1.12068413
ECCENTRICITY   = .8115523
INCLINATION    = 24.1342
RA_OF_ASC_NODE = 245.2589
ARG_OF_PERICENTER = 181.1363
MEAN_ANOMALY   = 173.9363

EPHEMERIS_TYPE = 0
CLASSIFICATION_TYPE = U
NORAD_CAT_ID   = 66144
ELEMENT_SET_NO = 999
REV_AT_EPOCH   = 14
BSTAR          = .33584E-2
MEAN_MOTION_DOT = -.276E-5
MEAN_MOTION_DDOT = 0

CCSDS_OMM_VERS = 2.0
CREATION_DATE  = 
ORIGINATOR     = 

OBJECT_NAME    = STARLINK-35318
OBJECT_ID      = 2025-240A
CENTER_NAME    = EARTH
REF_FRAME      = TEME
TIME_SYSTEM    = UTC
MEAN_ELEMENT_THEORY = SGP/SGP4

EPOCH          = 2025-11-04T16:00:03.000096
MEAN_MOTION    = 15.82197534
ECCENTRICITY   = .0000666
INCLINATION    = 53.1522
RA_OF_ASC_NODE = 288.0609
ARG_OF_PERICENTER = 102.5241
MEAN_ANOMALY   = 252.7536

EPHEMERIS_TYPE = 0
CLASSIFICATION_TYPE = U
NORAD_CAT_ID   = 66146
ELEMENT_SET_NO = 999
REV_AT_EPOCH   = 283
BSTAR          = -.72454E-2
MEAN_MOTION_DOT = -.1334008E-1
MEAN_MOTION_DDOT = 0

CCSDS_OMM_VERS = 2.0
CREATION_DATE  = 
ORIGINATOR     = 

OBJECT_NAME    = STARLINK-33948
OBJECT_ID      = 2025-240B
CENTER_NAME    = EARTH
REF_FRAME      = TEME
TIME_SYSTEM    = UTC
MEAN_ELEMENT_THEORY = SGP/SGP4

EPOCH          = 2025-11-04T16:00:03.000096
MEAN_MOTION    = 15.82204394
ECCENTRICITY   = .0000567
INCLINATION    = 53.1523
RA_OF_ASC_NODE = 288.0563
ARG_OF_PERICENTER = 98.0259
MEAN_ANOMALY   = 259.4783

EPHEMERIS_TYPE = 0
CLASSIFICATION_TYPE = U
NORAD_CAT_ID   = 66147
ELEMENT_SET_NO = 999
REV_AT_EPOCH   = 283
BSTAR          = -.73749E-2
MEAN_MOTION_DOT = -.1355125E-1
MEAN_MOTION_DDOT = 0

