STARLINK-34852          
1 66135U 25237X   25308.91668981 -.00030645  00000+0 -20545-3 0  9994
2 66135  53.1572 267.4724 0001492 106.7834 145.9580 15.74215621  3361
STARLINK-35592          
1 66136U 25237Y   25308.91668981 -.00086044  00000+0 -58846-3 0  9994
2 66136  53.1565 267.4686 0000991 109.8911 144.7772 15.74218486  3401
STARLINK-35576          
1 66137U 25237Z   25308.91668981 -.00123192  00000+0 -84718-3 0  9998
2 66137  53.1564 267.4642 0001125 118.0286 138.5512 15.74243207  3402
STARLINK-35623          
1 66138U 25237AA  25308.91668981 -.00052660  00000+0 -35713-3 0  9991
2 66138  53.1572 267.4605 0001301 107.5056 150.9861 15.74212809  3404
STARLINK-35549          
1 66139U 25237AB  25308.91668981 -.00003988  00000+0 -22955-4 0  9996
2 66139  53.1572 267.4524 0001228 105.8701 156.4782 15.74176718  3402
STARLINK-35625          
1 66140U 25237AC  25308.91668981 -.00019871  00000+0 -13167-3 0  9990
2 66140  53.1572 267.4566 0001202  97.2683 163.1545 15.74193005  3405
STARLINK-35603          
1 66141U 25237AD  25308.91668981  .00036817  00000+0  25475-3 0  9993
2 66141  53.1573 267.4481 0001234 100.8005 163.4510 15.74173245  3406
TJS-20                  
1 66142U 25238A   25308.61952463  .00000027  00000+0  00000+0 0  9990
2 66142   5.9751 300.4868 0001953 151.6913 237.4519  1.00270081    89
CZ-5 R/B                
1 66143U 25238B   25308.33939777  .00032736  93255-6  13325-2 0  9993
2 66143  16.3627 269.4708 7595547 171.3434 220.2509  1.93246344   240
SPAINSAT NG II          
1 66144U 25239A   25307.96108262 -.00000276  00000+0  33584-2 0  9993
2 66144  24.1342 245.2589 8115523 181.1363 173.9363  1.12068413   145
STARLINK-35318          
1 66146U 25240A   25308.66670139 -.01334008  00000+0 -72454-2 0  9996
2 66146  53.1522 288.0609 0000666 102.5241 252.7536 15.82197534  2837
STARLINK-33948          
1 66147U 25240B   25308.66670139 -.01355125  00000+0 -73749-2 0  9998
2 66147  53.1523 288.0563 0000567  98.0259 259.4783 15.82204394  2837
